{"type": "FeatureCollection", "features": [ {"type": "Feature", "properties": {"norad_id": 37834, "name": "INTELSAT 18 (IS-18)", "group": "intelsat", "lat": 0.03843739183178792, "lon": 68.45662020984751, "alt_km": 35794.863016974, "timestamp": "2025-12-07T11:27:49.655626+00:00", "meta": {"OBJECT_NAME": "INTELSAT 18 (IS-18)", "OBJECT_ID": "2011-056A", "EPOCH": "2025-12-06T17:56:45.630240", "MEAN_MOTION": 1.00271775, "ECCENTRICITY": 0.00021414, "INCLINATION": 0.0159, "RA_OF_ASC_NODE": 324.7681, "ARG_OF_PERICENTER": 296.7437, "MEAN_ANOMALY": 263.4607, "EPHEMERIS_TYPE": 0, "CLASSIFICATION_TYPE": "U", "NORAD_CAT_ID": 37834, "ELEMENT_SET_NO": 999, "REV_AT_EPOCH": 5188, "BSTAR": 0, "MEAN_MOTION_DOT": 5.9e-07, "MEAN_MOTION_DDOT": 0}, "tle": {"line1": "1 37834U 11056A   25340.74775035  .00000059  00000+0  00000+0 0  9992", "line2": "2 37834   0.0159 324.7681 0002141 296.7437 263.4607  1.00271775 51889"}}, "geometry": {"type": "Point", "coordinates": [68.45662020984751, 0.03843739183178792]}}, {"type": "Feature", "properties": {"norad_id": 38098, "name": "INTELSAT 22 (IS-22)", "group": "intelsat", "lat": -0.01725993960395422, "lon": -39.426498255036925, "alt_km": 35781.83907485581, "timestamp": "2025-12-07T11:27:49.655638+00:00", "meta": {"OBJECT_NAME": "INTELSAT 22 (IS-22)", "OBJECT_ID": "2012-011A", "EPOCH": "2025-12-06T20:51:22.864896", "MEAN_MOTION": 1.00271127, "ECCENTRICITY": 0.00017664, "INCLINATION": 0.0098, "RA_OF_ASC_NODE": 36.0528, "ARG_OF_PERICENTER": 230.8269, "MEAN_ANOMALY": 193.9751, "EPHEMERIS_TYPE": 0, "CLASSIFICATION_TYPE": "U", "NORAD_CAT_ID": 38098, "ELEMENT_SET_NO": 999, "REV_AT_EPOCH": 526, "BSTAR": 0, "MEAN_MOTION_DOT": -5.3e-07, "MEAN_MOTION_DDOT": 0}, "tle": {"line1": "1 38098U 12011A   25340.86901464 -.00000053  00000+0  00000+0 0  9992", "line2": "2 38098   0.0098  36.0528 0001766 230.8269 193.9751  1.00271127  5260"}}, "geometry": {"type": "Point", "coordinates": [-39.426498255036925, -0.01725993960395422]}}, {"type": "Feature", "properties": {"norad_id": 38356, "name": "INTELSAT 19 (IS-19)", "group": "intelsat", "lat": 0.02693304414429399, "lon": 54.46986751887723, "alt_km": 35799.63882289853, "timestamp": "2025-12-07T11:27:49.655651+00:00", "meta": {"OBJECT_NAME": "INTELSAT 19 (IS-19)", "OBJECT_ID": "2012-030A", "EPOCH": "2025-12-06T19:24:38.769120", "MEAN_MOTION": 1.00270278, "ECCENTRICITY": 0.00035324, "INCLINATION": 0.0099, "RA_OF_ASC_NODE": 8.9721, "ARG_OF_PERICENTER": 254.0665, "MEAN_ANOMALY": 269.9686, "EPHEMERIS_TYPE": 0, "CLASSIFICATION_TYPE": "U", "NORAD_CAT_ID": 38356, "ELEMENT_SET_NO": 999, "REV_AT_EPOCH": 4852, "BSTAR": 0, "MEAN_MOTION_DOT": -5.1e-07, "MEAN_MOTION_DDOT": 0}, "tle": {"line1": "1 38356U 12030A   25340.80878205 -.00000051  00000+0  00000+0 0  9998", "line2": "2 38356   0.0099   8.9721 0003532 254.0665 269.9686  1.00270278 48525"}}, "geometry": {"type": "Point", "coordinates": [54.46986751887723, 0.02693304414429399]}}, {"type": "Feature", "properties": {"norad_id": 38740, "name": "INTELSAT 20 (IS-20)", "group": "intelsat", "lat": -0.0030966374172628247, "lon": -43.01327234192, "alt_km": 35794.45909814837, "timestamp": "2025-12-07T11:27:49.655663+00:00", "meta": {"OBJECT_NAME": "INTELSAT 20 (IS-20)", "OBJECT_ID": "2012-043A", "EPOCH": "2025-12-06T20:20:38.721696", "MEAN_MOTION": 1.00270943, "ECCENTRICITY": 0.00028617, "INCLINATION": 0.0082, "RA_OF_ASC_NODE": 78.3348, "ARG_OF_PERICENTER": 105.6761, "MEAN_ANOMALY": 265.545, "EPHEMERIS_TYPE": 0, "CLASSIFICATION_TYPE": "U", "NORAD_CAT_ID": 38740, "ELEMENT_SET_NO": 999, "REV_AT_EPOCH": 4882, "BSTAR": 0, "MEAN_MOTION_DOT": -1.9e-07, "MEAN_MOTION_DDOT": 0}, "tle": {"line1": "1 38740U 12043A   25340.84767039 -.00000019  00000+0  00000+0 0  9999", "line2": "2 38740   0.0082  78.3348 0002861 105.6761 265.5450  1.00270943 48825"}}, "geometry": {"type": "Point", "coordinates": [-43.01327234192, -0.0030966374172628247]}}, {"type": "Feature", "properties": {"norad_id": 38749, "name": "INTELSAT 21 (IS-21)", "group": "intelsat", "lat": -0.017608127057191492, "lon": -169.56821713080993, "alt_km": 35781.67033274816, "timestamp": "2025-12-07T11:27:49.655675+00:00", "meta": {"OBJECT_NAME": "INTELSAT 21 (IS-21)", "OBJECT_ID": "2012-045A", "EPOCH": "2025-12-06T21:57:01.577376", "MEAN_MOTION": 1.00271088, "ECCENTRICITY": 0.00022547, "INCLINATION": 0.0168, "RA_OF_ASC_NODE": 348.829, "ARG_OF_PERICENTER": 262.233, "MEAN_ANOMALY": 96.1467, "EPHEMERIS_TYPE": 0, "CLASSIFICATION_TYPE": "U", "NORAD_CAT_ID": 38749, "ELEMENT_SET_NO": 999, "REV_AT_EPOCH": 4859, "BSTAR": 0, "MEAN_MOTION_DOT": -2.79e-06, "MEAN_MOTION_DDOT": 0}, "tle": {"line1": "1 38749U 12045A   25340.91460159 -.00000279  00000+0  00000+0 0  9999", "line2": "2 38749   0.0168 348.8290 0002254 262.2330  96.1467  1.00271088 48599"}}, "geometry": {"type": "Point", "coordinates": [-169.56821713080993, -0.017608127057191492]}}, {"type": "Feature", "properties": {"norad_id": 38867, "name": "INTELSAT 23 (IS-23)", "group": "intelsat", "lat": 0.025435177576546734, "lon": -164.59738232192262, "alt_km": 35781.304325479265, "timestamp": "2025-12-07T11:27:49.655686+00:00", "meta": {"OBJECT_NAME": "INTELSAT 23 (IS-23)", "OBJECT_ID": "2012-057A", "EPOCH": "2025-12-06T11:42:00.871776", "MEAN_MOTION": 1.00267666, "ECCENTRICITY": 0.00016876, "INCLINATION": 0.0474, "RA_OF_ASC_NODE": 98.6565, "ARG_OF_PERICENTER": 128.5865, "MEAN_ANOMALY": 330.7637, "EPHEMERIS_TYPE": 0, "CLASSIFICATION_TYPE": "U", "NORAD_CAT_ID": 38867, "ELEMENT_SET_NO": 999, "REV_AT_EPOCH": 4802, "BSTAR": 0, "MEAN_MOTION_DOT": -2.78e-06, "MEAN_MOTION_DDOT": 0}, "tle": {"line1": "1 38867U 12057A   25340.48751009 -.00000278  00000+0  00000+0 0  9991", "line2": "2 38867   0.0474  98.6565 0001687 128.5865 330.7637  1.00267666 48022"}}, "geometry": {"type": "Point", "coordinates": [-164.59738232192262, 0.025435177576546734]}}, {"type": "Feature", "properties": {"norad_id": 39360, "name": "FM-6", "group": "intelsat", "lat": 0.007023489657881104, "lon": 132.27960141606823, "alt_km": 35776.94225302928, "timestamp": "2025-12-07T11:27:49.655699+00:00", "meta": {"OBJECT_NAME": "FM-6", "OBJECT_ID": "2013-058A", "EPOCH": "2025-12-06T21:40:25.667904", "MEAN_MOTION": 1.00269931, "ECCENTRICITY": 0.00030394, "INCLINATION": 0.0018, "RA_OF_ASC_NODE": 52.0479, "ARG_OF_PERICENTER": 121.0655, "MEAN_ANOMALY": 111.7842, "EPHEMERIS_TYPE": 0, "CLASSIFICATION_TYPE": "U", "NORAD_CAT_ID": 39360, "ELEMENT_SET_NO": 999, "REV_AT_EPOCH": 4414, "BSTAR": 0, "MEAN_MOTION_DOT": -1.1e-07, "MEAN_MOTION_DDOT": 0}, "tle": {"line1": "1 39360U 13058A   25340.90307486 -.00000011  00000+0  00000+0 0  9990", "line2": "2 39360   0.0018  52.0479 0003039 121.0655 111.7842  1.00269931 44142"}}, "geometry": {"type": "Point", "coordinates": [132.27960141606823, 0.007023489657881104]}}, {"type": "Feature", "properties": {"norad_id": 40271, "name": "INTELSAT 30 (IS-30)", "group": "intelsat", "lat": 0.015585716836676278, "lon": 153.3999216470321, "alt_km": 35784.62613809334, "timestamp": "2025-12-07T11:27:49.655711+00:00", "meta": {"OBJECT_NAME": "INTELSAT 30 (IS-30)", "OBJECT_ID": "2014-062A", "EPOCH": "2025-12-06T21:46:25.093632", "MEAN_MOTION": 1.00269108, "ECCENTRICITY": 0.0001117, "INCLINATION": 0.014, "RA_OF_ASC_NODE": 17.4441, "ARG_OF_PERICENTER": 74.1595, "MEAN_ANOMALY": 215.8838, "EPHEMERIS_TYPE": 0, "CLASSIFICATION_TYPE": "U", "NORAD_CAT_ID": 40271, "ELEMENT_SET_NO": 999, "REV_AT_EPOCH": 485, "BSTAR": 0, "MEAN_MOTION_DOT": -1.45e-06, "MEAN_MOTION_DDOT": 0}, "tle": {"line1": "1 40271U 14062A   25340.90723488 -.00000145  00000+0  00000+0 0  9991", "line2": "2 40271   0.0140  17.4441 0001117  74.1595 215.8838  1.00269108  4852"}}, "geometry": {"type": "Point", "coordinates": [153.3999216470321, 0.015585716836676278]}}, {"type": "Feature", "properties": {"norad_id": 40333, "name": "DIRECTV 14", "group": "intelsat", "lat": 0.0072649507065259255, "lon": 149.22363506289076, "alt_km": 35786.17667940204, "timestamp": "2025-12-07T11:27:49.655723+00:00", "meta": {"OBJECT_NAME": "DIRECTV 14", "OBJECT_ID": "2014-078B", "EPOCH": "2025-12-06T21:45:17.700768", "MEAN_MOTION": 1.00270142, "ECCENTRICITY": 3.39e-05, "INCLINATION": 0.0178, "RA_OF_ASC_NODE": 339.7021, "ARG_OF_PERICENTER": 243.8645, "MEAN_ANOMALY": 79.476, "EPHEMERIS_TYPE": 0, "CLASSIFICATION_TYPE": "U", "NORAD_CAT_ID": 40333, "ELEMENT_SET_NO": 999, "REV_AT_EPOCH": 4011, "BSTAR": 0, "MEAN_MOTION_DOT": -1.2e-06, "MEAN_MOTION_DDOT": 0}, "tle": {"line1": "1 40333U 14078B   25340.90645487 -.00000120  00000+0  00000+0 0  9992", "line2": "2 40333   0.0178 339.7021 0000339 243.8645  79.4760  1.00270142 40119"}}, "geometry": {"type": "Point", "coordinates": [149.22363506289076, 0.0072649507065259255]}}, {"type": "Feature", "properties": {"norad_id": 40663, "name": "DIRECTV 15", "group": "intelsat", "lat": 0.033842735373912, "lon": 145.5819715743629, "alt_km": 35786.40613017451, "timestamp": "2025-12-07T11:27:49.655734+00:00", "meta": {"OBJECT_NAME": "DIRECTV 15", "OBJECT_ID": "2015-026A", "EPOCH": "2025-12-06T21:44:10.308768", "MEAN_MOTION": 1.00270123, "ECCENTRICITY": 4.561e-05, "INCLINATION": 0.0385, "RA_OF_ASC_NODE": 80.1364, "ARG_OF_PERICENTER": 150.8974, "MEAN_ANOMALY": 68.0869, "EPHEMERIS_TYPE": 0, "CLASSIFICATION_TYPE": "U", "NORAD_CAT_ID": 40663, "ELEMENT_SET_NO": 999, "REV_AT_EPOCH": 3853, "BSTAR": 0, "MEAN_MOTION_DOT": -9.7e-07, "MEAN_MOTION_DDOT": 0}, "tle": {"line1": "1 40663U 15026A   25340.90567487 -.00000097  00000+0  00000+0 0  9998", "line2": "2 40663   0.0385  80.1364 0000456 150.8974  68.0869  1.00270123 38530"}}, "geometry": {"type": "Point", "coordinates": [145.5819715743629, 0.033842735373912]}}]}